CCSDS_OMM_VERS = 2.0
CREATION_DATE  = 
ORIGINATOR     = 

OBJECT_NAME    = SL-16 R/B
OBJECT_ID      = 1993-016B
CENTER_NAME    = EARTH
REF_FRAME      = TEME
TIME_SYSTEM    = UTC
MEAN_ELEMENT_THEORY = SGP/SGP4

EPOCH          = 2026-02-13T01:01:43.649184
MEAN_MOTION    = 14.15302364
ECCENTRICITY   = .00105037
INCLINATION    = 71.0056
RA_OF_ASC_NODE = 266.9501
ARG_OF_PERICENTER = 347.6595
MEAN_ANOMALY   = 12.4269

EPHEMERIS_TYPE = 0
CLASSIFICATION_TYPE = U
NORAD_CAT_ID   = 22566
ELEMENT_SET_NO = 999
REV_AT_EPOCH   = 69868
BSTAR          = -.98662798E-4
MEAN_MOTION_DOT = -.24E-5
MEAN_MOTION_DDOT = 0

CCSDS_OMM_VERS = 2.0
CREATION_DATE  = 
ORIGINATOR     = 

OBJECT_NAME    = COSMOS 2242
OBJECT_ID      = 1993-024A
CENTER_NAME    = EARTH
REF_FRAME      = TEME
TIME_SYSTEM    = UTC
MEAN_ELEMENT_THEORY = SGP/SGP4

EPOCH          = 2026-02-13T03:55:29.042112
MEAN_MOTION    = 14.96447696
ECCENTRICITY   = .00173122
INCLINATION    = 82.5190
RA_OF_ASC_NODE = 290.1760
ARG_OF_PERICENTER = 32.3149
MEAN_ANOMALY   = 327.9129

EPHEMERIS_TYPE = 0
CLASSIFICATION_TYPE = U
NORAD_CAT_ID   = 22626
ELEMENT_SET_NO = 999
REV_AT_EPOCH   = 77672
BSTAR          = .19750707E-3
MEAN_MOTION_DOT = .2272E-4
MEAN_MOTION_DDOT = 0

CCSDS_OMM_VERS = 2.0
CREATION_DATE  = 
ORIGINATOR     = 

OBJECT_NAME    = SL-16 R/B
OBJECT_ID      = 1993-059B
CENTER_NAME    = EARTH
REF_FRAME      = TEME
TIME_SYSTEM    = UTC
MEAN_ELEMENT_THEORY = SGP/SGP4

EPOCH          = 2026-02-13T06:25:12.914112
MEAN_MOTION    = 14.17228174
ECCENTRICITY   = .00194648
INCLINATION    = 70.9890
RA_OF_ASC_NODE = 62.6290
ARG_OF_PERICENTER = 250.2203
MEAN_ANOMALY   = 109.6822

EPHEMERIS_TYPE = 0
CLASSIFICATION_TYPE = U
NORAD_CAT_ID   = 22803
ELEMENT_SET_NO = 999
REV_AT_EPOCH   = 67607
BSTAR          = -.2976692E-4
MEAN_MOTION_DOT = -.108E-5
MEAN_MOTION_DDOT = 0

CCSDS_OMM_VERS = 2.0
CREATION_DATE  = 
ORIGINATOR     = 

OBJECT_NAME    = ARIANE 40 R/B
OBJECT_ID      = 1993-061H
CENTER_NAME    = EARTH
REF_FRAME      = TEME
TIME_SYSTEM    = UTC
MEAN_ELEMENT_THEORY = SGP/SGP4

EPOCH          = 2026-02-13T04:30:40.214016
MEAN_MOTION    = 14.32847753
ECCENTRICITY   = .00105185
INCLINATION    = 98.4970
RA_OF_ASC_NODE = 113.5527
ARG_OF_PERICENTER = 3.2933
MEAN_ANOMALY   = 356.8318

EPHEMERIS_TYPE = 0
CLASSIFICATION_TYPE = U
NORAD_CAT_ID   = 22830
ELEMENT_SET_NO = 999
REV_AT_EPOCH   = 69059
BSTAR          = .87359457E-4
MEAN_MOTION_DOT = .195E-5
MEAN_MOTION_DDOT = 0

CCSDS_OMM_VERS = 2.0
CREATION_DATE  = 
ORIGINATOR     = 

OBJECT_NAME    = COSMOS 2278
OBJECT_ID      = 1994-023A
CENTER_NAME    = EARTH
REF_FRAME      = TEME
TIME_SYSTEM    = UTC
MEAN_ELEMENT_THEORY = SGP/SGP4

EPOCH          = 2026-02-12T20:15:47.933856
MEAN_MOTION    = 14.14363497
ECCENTRICITY   = .000682
INCLINATION    = 71.0501
RA_OF_ASC_NODE = 227.0773
ARG_OF_PERICENTER = 61.2209
MEAN_ANOMALY   = 298.9597

EPHEMERIS_TYPE = 0
CLASSIFICATION_TYPE = U
NORAD_CAT_ID   = 23087
ELEMENT_SET_NO = 999
REV_AT_EPOCH   = 64129
BSTAR          = .33559E-4
MEAN_MOTION_DOT = .17E-6
MEAN_MOTION_DDOT = 0

CCSDS_OMM_VERS = 2.0
CREATION_DATE  = 
ORIGINATOR     = 

OBJECT_NAME    = SL-16 R/B
OBJECT_ID      = 1994-023B
CENTER_NAME    = EARTH
REF_FRAME      = TEME
TIME_SYSTEM    = UTC
MEAN_ELEMENT_THEORY = SGP/SGP4

EPOCH          = 2026-02-13T06:07:56.381952
MEAN_MOTION    = 14.15005163
ECCENTRICITY   = .00045756
INCLINATION    = 70.9995
RA_OF_ASC_NODE = 122.2044
ARG_OF_PERICENTER = 308.5211
MEAN_ANOMALY   = 51.5501

EPHEMERIS_TYPE = 0
CLASSIFICATION_TYPE = U
NORAD_CAT_ID   = 23088
ELEMENT_SET_NO = 999
REV_AT_EPOCH   = 64263
BSTAR          = .14899749E-3
MEAN_MOTION_DOT = .241E-5
MEAN_MOTION_DDOT = 0

CCSDS_OMM_VERS = 2.0
CREATION_DATE  = 
ORIGINATOR     = 

OBJECT_NAME    = SL-16 R/B
OBJECT_ID      = 1994-074B
CENTER_NAME    = EARTH
REF_FRAME      = TEME
TIME_SYSTEM    = UTC
MEAN_ELEMENT_THEORY = SGP/SGP4

EPOCH          = 2026-02-13T00:54:54.190944
MEAN_MOTION    = 14.79378090
ECCENTRICITY   = .0005388
INCLINATION    = 97.7142
RA_OF_ASC_NODE = 75.8505
ARG_OF_PERICENTER = 310.2497
MEAN_ANOMALY   = 109.5152

EPHEMERIS_TYPE = 0
CLASSIFICATION_TYPE = U
NORAD_CAT_ID   = 23343
ELEMENT_SET_NO = 999
REV_AT_EPOCH   = 68360
BSTAR          = .7623865E-4
MEAN_MOTION_DOT = .519E-5
MEAN_MOTION_DDOT = 0

CCSDS_OMM_VERS = 2.0
CREATION_DATE  = 
ORIGINATOR     = 

OBJECT_NAME    = SL-16 R/B
OBJECT_ID      = 1994-077B
CENTER_NAME    = EARTH
REF_FRAME      = TEME
TIME_SYSTEM    = UTC
MEAN_ELEMENT_THEORY = SGP/SGP4

EPOCH          = 2026-02-13T05:55:11.495712
MEAN_MOTION    = 14.15559809
ECCENTRICITY   = .00040905
INCLINATION    = 70.9823
RA_OF_ASC_NODE = 43.9116
ARG_OF_PERICENTER = 232.6050
MEAN_ANOMALY   = 127.4701

EPHEMERIS_TYPE = 0
CLASSIFICATION_TYPE = U
NORAD_CAT_ID   = 23405
ELEMENT_SET_NO = 999
REV_AT_EPOCH   = 61277
BSTAR          = .18768156E-3
MEAN_MOTION_DOT = .319E-5
MEAN_MOTION_DDOT = 0

CCSDS_OMM_VERS = 2.0
CREATION_DATE  = 
ORIGINATOR     = 

OBJECT_NAME    = ARIANE 40+ R/B
OBJECT_ID      = 1995-021B
CENTER_NAME    = EARTH
REF_FRAME      = TEME
TIME_SYSTEM    = UTC
MEAN_ELEMENT_THEORY = SGP/SGP4

EPOCH          = 2026-02-13T04:58:10.841088
MEAN_MOTION    = 14.39754144
ECCENTRICITY   = .00063456
INCLINATION    = 98.4550
RA_OF_ASC_NODE = 116.0152
ARG_OF_PERICENTER = 206.0852
MEAN_ANOMALY   = 172.8940

EPHEMERIS_TYPE = 0
CLASSIFICATION_TYPE = U
NORAD_CAT_ID   = 23561
ELEMENT_SET_NO = 999
REV_AT_EPOCH   = 61572
BSTAR          = .11109352E-3
MEAN_MOTION_DOT = .305E-5
MEAN_MOTION_DDOT = 0

CCSDS_OMM_VERS = 2.0
CREATION_DATE  = 
ORIGINATOR     = 

OBJECT_NAME    = SL-16 R/B
OBJECT_ID      = 1995-058B
CENTER_NAME    = EARTH
REF_FRAME      = TEME
TIME_SYSTEM    = UTC
MEAN_ELEMENT_THEORY = SGP/SGP4

EPOCH          = 2026-02-12T23:16:27.852384
MEAN_MOTION    = 14.15495106
ECCENTRICITY   = .001193
INCLINATION    = 71.0194
RA_OF_ASC_NODE = 232.1528
ARG_OF_PERICENTER = 167.3205
MEAN_ANOMALY   = 192.8220

EPHEMERIS_TYPE = 0
CLASSIFICATION_TYPE = U
NORAD_CAT_ID   = 23705
ELEMENT_SET_NO = 999
REV_AT_EPOCH   = 56435
BSTAR          = .1129E-3
MEAN_MOTION_DOT = .173E-5
MEAN_MOTION_DDOT = 0

CCSDS_OMM_VERS = 2.0
CREATION_DATE  = 
ORIGINATOR     = 

OBJECT_NAME    = SL-16 R/B
OBJECT_ID      = 1996-051B
CENTER_NAME    = EARTH
REF_FRAME      = TEME
TIME_SYSTEM    = UTC
MEAN_ELEMENT_THEORY = SGP/SGP4

EPOCH          = 2026-02-12T22:53:09.095136
MEAN_MOTION    = 14.12408579
ECCENTRICITY   = .0017177
INCLINATION    = 70.7567
RA_OF_ASC_NODE = 227.5953
ARG_OF_PERICENTER = 182.9891
MEAN_ANOMALY   = 177.1129

EPHEMERIS_TYPE = 0
CLASSIFICATION_TYPE = U
NORAD_CAT_ID   = 24298
ELEMENT_SET_NO = 999
REV_AT_EPOCH   = 51815
BSTAR          = .86202E-4
MEAN_MOTION_DOT = .11E-5
MEAN_MOTION_DDOT = 0

CCSDS_OMM_VERS = 2.0
CREATION_DATE  = 
ORIGINATOR     = 

OBJECT_NAME    = ORBVIEW 2 (SEASTAR)
OBJECT_ID      = 1997-037A
CENTER_NAME    = EARTH
REF_FRAME      = TEME
TIME_SYSTEM    = UTC
MEAN_ELEMENT_THEORY = SGP/SGP4

EPOCH          = 2026-02-13T00:31:40.194336
MEAN_MOTION    = 14.35475696
ECCENTRICITY   = .00030901
INCLINATION    = 98.8523
RA_OF_ASC_NODE = 207.6861
ARG_OF_PERICENTER = 121.8668
MEAN_ANOMALY   = 238.2818

EPHEMERIS_TYPE = 0
CLASSIFICATION_TYPE = U
NORAD_CAT_ID   = 24883
ELEMENT_SET_NO = 999
REV_AT_EPOCH   = 50493
BSTAR          = .13670174E-3
MEAN_MOTION_DOT = .346E-5
MEAN_MOTION_DDOT = 0

