SL-16 R/B               
1 22566U 93016B   26044.04286631 -.00000240  00000+0 -98663-4 0  9999
2 22566  71.0056 266.9501 0010503 347.6595  12.4269 14.15302364698689
COSMOS 2242             
1 22626U 93024A   26044.16353058  .00002272  00000+0  19751-3 0  9991
2 22626  82.5190 290.1760 0017312  32.3149 327.9129 14.96447696776724
SL-16 R/B               
1 22803U 93059B   26044.26751058 -.00000108  00000+0 -29767-4 0  9996
2 22803  70.9890  62.6290 0019464 250.2203 109.6822 14.17228174676074
ARIANE 40 R/B           
1 22830U 93061H   26044.18796544  .00000195  00000+0  87359-4 0  9994
2 22830  98.4970 113.5527 0010518   3.2933 356.8318 14.32847753690590
COSMOS 2278             
1 23087U 94023A   26043.84430479  .00000017  00000+0  33559-4 0  9998
2 23087  71.0501 227.0773 0006820  61.2209 298.9597 14.14363497641293
SL-16 R/B               
1 23088U 94023B   26044.25551368  .00000241  00000+0  14900-3 0  9993
2 23088  70.9995 122.2044 0004575 308.5211  51.5501 14.15005163642632
SL-16 R/B               
1 23343U 94074B   26044.03812721  .00000519  00000+0  76239-4 0  9994
2 23343  97.7142  75.8505 0005388 310.2497 109.5152 14.79378090683601
SL-16 R/B               
1 23405U 94077B   26044.24666083  .00000319  00000+0  18768-3 0  9997
2 23405  70.9823  43.9116 0004090 232.6050 127.4701 14.15559809612772
ARIANE 40+ R/B          
1 23561U 95021B   26044.20706992  .00000305  00000+0  11109-3 0  9997
2 23561  98.4550 116.0152 0006345 206.0852 172.8940 14.39754144615721
SL-16 R/B               
1 23705U 95058B   26043.96976681  .00000173  00000+0  11290-3 0  9997
2 23705  71.0194 232.1528 0011930 167.3205 192.8220 14.15495106564355
SL-16 R/B               
1 24298U 96051B   26043.95357749  .00000110  00000+0  86202-4 0  9993
2 24298  70.7567 227.5953 0017177 182.9891 177.1129 14.12408579518152
ORBVIEW 2 (SEASTAR)     
1 24883U 97037A   26044.02199299  .00000346  00000+0  13670-3 0  9990
2 24883  98.8523 207.6861 0003090 121.8668 238.2818 14.35475696504939
